COSMOS 2433 (720)       
1 32275U 07052A   22032.35760640 -.00000067  00000+0  00000+0 0  9995
2 32275  66.0834   9.1853 0005001 266.6254 345.9207  2.13104185111065
COSMOS 2432 (719)       
1 32276U 07052B   22032.42361413 -.00000067  00000+0  00000+0 0  9999
2 32276  66.0964   9.2815 0011904 318.9930 292.8510  2.13103523111062
COSMOS 2434 (721)       
1 32393U 07065A   22032.40486433  .00000067  00000+0  00000+0 0  9990
2 32393  64.4086 246.0738 0004763  72.7082 105.1572  2.13103121109775
COSMOS 2436 (723)       
1 32395U 07065C   22031.95868797  .00000074  00000+0  00000+0 0  9996
2 32395  64.4174 246.1452 0016600   6.1326 325.3980  2.13102961109695
COSMOS 2456 (730)       
1 36111U 09070A   22031.72016188 -.00000009  00000+0  00000+0 0  9997
2 36111  64.3207 125.7497 0002833 309.6967 230.3749  2.13099107 94426
COSMOS 2457 (733)       
1 36112U 09070B   22032.61911796 -.00000002  00000+0  00000+0 0  9999
2 36112  64.3034 125.5976 0005761 164.8179 111.1078  2.13101336 94445
COSMOS 2461 (735)       
1 36401U 10007B   22032.38343888 -.00000068  00000+0  00000+0 0  9999
2 36401  65.9711   8.0417 0020666 359.3857 130.5315  2.13103754 92796
COSMOS 2460 (732)       
1 36402U 10007C   22032.53215681 -.00000068  00000+0  00000+0 0  9996
2 36402  65.9573   7.9891 0002452 290.1611 260.9788  2.13106488 92799
COSMOS 2464 (736)       
1 37139U 10041C   22032.73366588  .00000062  00000+0  00000+0 0  9990
2 37139  64.0078 245.2057 0030306  13.7412 275.6065  2.13100638 88859
COSMOS 2476 (744)       
1 37867U 11064A   22032.42560824 -.00000003  00000+0  00000+0 0  9995
2 37867  64.6118 127.0282 0021281 234.0821  31.4972  2.13101853 79786
COSMOS 2477 (745)       
1 37868U 11064B   22032.68902948 -.00000001  00000+0  00000+0 0  9999
2 37868  64.6198 127.0824 0018427 234.5268  51.3391  2.13101614 79742
COSMOS 2475 (743)       
1 37869U 11064C   22032.28073883 -.00000004  00000+0  00000+0 0  9996
2 37869  64.6270 127.1031 0022238 254.2687  36.2726  2.13101773 79744
COSMOS 2485 (747)       
1 39155U 13019A   22032.48726449 -.00000003  00000+0  00000+0 0  9992
2 39155  64.7768 127.4250 0021758 230.2280 127.0815  2.13101814 68250
COSMOS 2492 (754)       
1 39620U 14012A   22032.67168343 -.00000069  00000+0  00000+0 0  9999
2 39620  65.8448   7.6855 0015142 317.7084 215.6749  2.13103256 61218
COSMOS 2500 (755)       
1 40001U 14032A   22032.49099685 -.00000069  00000+0  00000+0 0  9998
2 40001  65.7849   7.5624 0007060 225.0489  28.7348  2.13102464 59428
COSMOS 2501 (702K)      
1 40315U 14075A   22031.58383196  .00000078  00000+0  00000+0 0  9994
2 40315  63.7173 245.9668 0016166 206.8976 238.2826  2.13101402 55814
COSMOS 2514 (751)       
1 41330U 16008A   22032.70352637 -.00000070  00000+0  00000+0 0  9994
2 41330  65.5845   7.2808 0010935 226.2963  14.1141  2.13102838 46593
COSMOS 2516 (753)       
1 41554U 16032A   22031.62845293  .00000078  00000+0  00000+0 0  9991
2 41554  63.9424 246.2026 0011938 214.5376 181.1718  2.13106093 44180
COSMOS 2522 (752)       
1 42939U 17055A   22032.47224948  .00000066  00000+0  00000+0 0  9994
2 42939  64.1765 246.5283 0005163 248.5818 293.4552  2.13102053 33956
COSMOS 2527 (756)       
1 43508U 18053A   22032.55625084 -.00000002  00000+0  00000+0 0  9992
2 43508  64.9396 127.3941 0008071 224.1646  54.4230  2.13102545 28244
COSMOS 2529 (757)       
1 43687U 18086A   22032.44647287  .00000066  00000+0  00000+0 0  9992
2 43687  64.3911 246.8099 0007790 278.0457 199.7315  2.13102102 25260
COSMOS 2534 (758)       
1 44299U 19030A   22031.63469054  .00000078  00000+0  00000+0 0  9999
2 44299  64.4624 246.7087 0011161 298.2473  51.4164  2.13101970 20888
COSMOS 2544 (759)       
1 44850U 19088A   22032.01963498 -.00000006  00000+0  00000+0 0  9991
2 44850  64.9246 127.2678 0011814 256.2723  14.2109  2.13102344 16665
COSMOS 2545 (760)       
1 45358U 20018A   22032.55578395 -.00000070  00000+0  00000+0 0  9998
2 45358  64.9217   8.0060 0010934 257.1515 274.3293  2.13102715 14639
COSMOS 2547 (705K)      
1 46805U 20075A   22032.76416442  .00000063  00000+0  00000+0 0  9997
2 46805  64.6853 246.0544 0005331 250.9032 292.4789  2.13102965  9880
